STARLINK-11705 [DTC]    
1 63758U 25089H   26067.99034614  .00268841  00000+0  20262-2 0  9992
2 63758  42.9994 296.6252 0001448 319.7608  40.3152 15.70903830 49971
SILVERSAT               
1 66909U 98067XV  26068.26463686  .00211631  00000+0  15445-2 0  9997
2 66909  51.6252  67.0520 0005527  73.9744 286.1863 15.72057374 15120
